#dP2022  1 23  0  0  0.00000000      96 __u+U ITR00 FIT  IAC
## 2194      0.00000000   900.00000000 59602 0.0000000000000
+  112   C06C07C08C09C10C11C12C13C14C16C19C20C21C22C23C24C25
+        C26C27C28C29C30C32C33C34C35C36C37C38C39C40C41C42C43
+        C44C45C46E01E02E03E04E05E07E08E09E11E12E13E14E15E18
+        E19E21E24E25E26E27E30E31E33E36G01G02G03G04G05G06G07
+        G08G09G10G11G12G13G14G15G16G17G18G19G20G21G23G24G25
+        G26G27G28G29G30G31G32R01R02R03R04R05R07R08R09R11R12
+        R13R14R15R17R18R19R20R21R22R24  0  0  0  0  0  0  0
++         8  7  7  9  7  6  8  8 11  7  7  7  7  6  8  6  7
++         7  7  8  7  6  8  6  8  6  7  7  9  8  8  6  8  8
++         7  7  8  6  7  6  6  7  6  6  6  6  6  5  6  6  6
++         7  6  6  4  6  7  7  5  6  7  6  6  7  6  7  5  5
++         6  6  6  6  6  6  5  6  7  6  5  6  6  6  6  6  7
++         5  5  6  7  6  6  6  6  6  5  6  5  5  9  6  6  6
++         5  6  7  6  7  7  7  7  8  7  0  0  0  0  0  0  0
%c M  cc GPS ccc cccc cccc cccc cccc ccccc ccccc ccccc ccccc
%c cc cc ccc ccc cccc cccc cccc cccc ccccc ccccc ccccc ccccc
%f  0.0000000  0.000000000  0.00000000000  0.000000000000000
%f  0.0000000  0.000000000  0.00000000000  0.000000000000000
%i    0    0    0    0      0      0      0      0         0
%i    0    0    0    0      0      0      0      0         0
/* INFORMATION & ANALYSIS CENTER (IAC)      ULTRA-RAPID DATA
/* S/V CLOCKS ARE ALIGNED TO GNSS TIME                      
/* G:C1WC2W R:C1PC2P E:C1XC5X C:C2IC6I J:C1CC2S             
/* PCV:IGS14_2188 OL/AL:FES2004  NONE     YN ORB:CoN CLK:CoN
*  2022 01 23  6 15  0.00000000
PC06 -18608.425220  32544.132803  19070.346546    -75.565207
PC07  -4086.284723  38537.498011  16761.788379     37.810247
PC08  -5189.838283  20447.984771 -36476.975947     80.224760
PC09 -10958.774338  31214.830137  26184.907629   -458.610922
PC10   1334.510741  40863.700893  11485.621001    139.693628
PC11 -17879.581914  -3697.978257  21183.703473   -253.572030
PC12  -1891.851447 -17054.080366  22046.897142   -434.777783
PC13   1615.543293  23523.097141 -34786.702419   -138.633097
PC14 -15395.431605 -13987.453415 -18558.182851    465.133520
PC16 -20746.090904  32403.025019  17110.047529     63.359471
PC19  16234.337781   3206.515854  22496.145560    906.524111
PC20  12714.198169  21138.762316  13084.021877   -809.390397
PC21  -1268.149019 -27454.714272   4801.719487   -969.360983
PC22  10518.850564 -17261.892770  19229.617661   -958.816886
PC23 -17604.831070   8585.516952  19878.123766   -970.975912
PC24 -19607.651246 -16259.955559 -11452.315468   -944.584370
PC25 -26735.870497  -4208.821428   6844.279822   -790.441433
PC26  -3032.576319 -17462.252141 -21577.355122    789.612146
PC27  -6951.494596  20814.563300 -17244.000090    665.740909
PC28 -21072.054687  18229.584568  -1559.980550     24.092171
PC29  22678.948934  -5624.799390 -15264.686574    505.157885
PC30  11098.091470  11413.057354 -22922.695187    491.775499
PC32   1468.951092  27448.483898  -4814.153619   -959.627517
PC33 -16270.203758  -3192.683963 -22440.061874   -954.982981
PC34 -11880.421764 -10751.266656  22839.903785   -485.615093
PC35  20758.817789 -18659.326303    886.086821    105.736740
PC36  26655.362192   5173.316429  -6398.299694   -876.056931
PC37   1342.993362  17267.156500  21884.251906   -949.905367
PC38 -13094.646141  20031.908606 -34711.087117    206.119403
PC39 -22763.102689  33177.274000  12295.960703     34.703430
PC40  -7731.772870  36220.987014  20286.042505    238.032065
PC41 -10671.490667  16944.662191 -19383.426930   -926.551372
PC42 -12321.185710 -21818.822363 -12228.049888   -929.221966
PC43 -22550.093026   4892.445502  15671.886392   -946.300267
PC44   6413.249258 -21189.749944  17003.921014    540.692471
PC45  17332.977481  -8674.293072 -20070.320083    661.102072
PC46  20600.692323  15690.411264  10338.174089   -129.279261
PE01 -22969.125067 -13156.470578  13262.117549   -564.843291
PE02  22957.926809  12994.973514 -13403.001160    275.414107
PE03  16804.391223   3496.960413  24109.310864   -519.987356
PE04 -17994.981277  17259.962846 -15947.550578   -948.710426
PE05   5718.696106  22584.614809  18256.788687   -216.027668
PE07   8550.611977 -28274.570567  -1854.383752   -631.339586
PE08  17741.360681 -17732.567790  15706.165664   5867.544234
PE09  -8309.606264  28340.233285   2075.348991   5385.633906
PE11  -9936.904256  16724.135206 -22305.461479   4618.615271
PE12 -26770.125200  10147.448550  -7477.064279   4796.297269
PE13  10631.114628 -16638.866251  22065.279763    425.893209
PE14  21304.418530  -1226.673829 -21349.558540  -1719.860504
PE15  26815.790618 -10145.836202   7383.760489    767.678581
PE18 -19572.184614  16713.651388   9448.234464  -1879.709312
PE19 -15752.632810  -6218.140113 -24275.726099    484.414685
PE21 -16808.195281 -24017.907379  -4153.828749   -712.855304
PE24   -648.994838  21097.703828  20723.521017  -1350.295937
PE25  16640.036627  24073.402131   4395.630798   -561.189861
PE26 -12775.605826 -13099.739338  23278.296267   -719.851659
PE27   -610.007869 -21723.603408 -20105.144715   -215.728659
PE30  16601.148203  -5577.449264 -23870.653590   -214.353657
PE31 -15841.230426   6649.585902  24110.116368   -491.140576
PE33 -27123.585034  -2325.513298  11623.717751   -460.127256
PE36  11716.429383  13313.196714 -23690.683509   -321.942507
PG01  10662.982266  13351.235860 -20706.542945    450.188641
PG02  12741.379798 -14689.571777  18809.507728   -649.305013
PG03  12745.564690  23236.607650  -2580.881885    -89.483636
PG04   3752.812823  19063.670476  18075.698786   -193.609187
PG05  -1176.831171 -21105.111858  15827.030000    -68.860453
PG06  24968.645509  -5785.223024   7176.526335    179.022424
PG07  23937.595802   6565.088342  10485.826752    304.288200
PG08  -4346.218752  24126.790142  -9792.140118    -53.265935
PG09  12719.101577   8726.850357  21547.639888   -356.997291
PG10 -17824.481901  -3301.163106 -19376.667826   -300.693104
PG11  15071.484001 -12395.629733  18010.630381    -70.775883
PG12  -9313.836657 -24478.995082  -5090.590937   -159.955106
PG13  12578.259459 -22939.754927  -4210.505340    249.766076
PG14  18031.068955   4035.127442 -19107.166280    -74.454710
PG15    740.249303 -24413.167481 -10436.289551    -89.448085
PG16  -4064.336754  18754.255328  17889.218487   -459.523051
PG17  17954.523846  -6366.368905 -18091.914132    565.192400
PG18 -23990.979658  -6095.686691   9763.103980    255.386934
PG19  19166.966218 -13002.735844 -13096.003606    109.205220
PG20   6861.084619 -15102.492094  20783.331774    517.042407
PG21    519.420224  14951.917726 -21243.713025    156.674855
PG23 -19342.985204 -13740.598926 -12046.009589      8.423870
PG24  -6514.406751 -15032.933164 -21246.762727    276.923780
PG25 -17316.109887 -19440.067253   5692.713911    274.926609
PG26 -13213.506645   8418.059436  21374.881167    176.829429
PG27 -12219.446175  23335.611097    182.944418     83.672308
PG28  14325.476639  -4249.014412 -21419.645892    416.273642
PG29  -9362.226101 -12250.607668  21576.631561   -470.874865
PG30  26668.316538    203.732252   1192.167430   -508.614995
PG31 -24217.876560   6900.314555   9035.369340   -161.254772
PG32 -18081.115706  10708.820033 -16007.363350    -55.047483
PR01   2009.436945  25117.527033   4003.116068      7.121006
PR02   9237.130864  12396.376525  20308.599575    507.385645
PR03  10662.719424  -6787.395126  22207.641767     50.375270
PR04   6013.572715 -21831.735976  11780.836341    124.721020
PR05  -1786.159041 -24923.611528  -5189.685686     86.439273
PR07 -10557.025335   7450.290868 -21947.819565     30.940749
PR08  -5928.962824  21906.302706 -11563.944345    -63.219040
PR09 -22103.595635 -12657.338276    205.558977     35.555885
PR11  -6315.374927   8944.775190  23044.461203     46.786862
PR12  11486.530779  15907.419221  16304.721263    297.252746
PR13  21820.038396  13172.967038    896.842505    -17.389540
PR14  19496.161518   2379.503559 -16275.036790     73.528412
PR15   5784.575541  -9386.081511 -22987.930237     98.703551
PR17  22895.378159  -9235.687611  -6330.381710    495.064538
PR18  17860.089484 -14944.385766  10493.459366    104.775439
PR19   4740.962440 -13034.458806  21413.369127   -175.432930
PR20 -14754.807586  -2819.977249  20615.795679    -63.552663
PR21 -22998.627854   9888.932694   4962.207415   -272.230823
PR22 -17265.001738  14878.834165 -11358.025046   -159.887672
PR24  15571.101045   2364.793608 -20038.678012     76.901128
EOF
